GLOBALSTAR M068         
1 32266U 07048D   25208.18973872 -.00000118  00000+0 -78362-4 0  9991
2 32266  51.9863 180.3148 0000782 228.9538 144.0273 12.62826395822908
GLOBALSTAR M079         
1 37188U 10054A   25208.18891319 -.00000106  00000+0 -13194-4 0  9994
2 37188  52.0057  18.0141 0000985  72.7663  98.1643 12.62265523682186
GLOBALSTAR M074         
1 37189U 10054B   25208.21557260 -.00000108  00000+0 -20787-4 0  9991
2 37189  52.0034  17.2514 0000979  93.1357  77.3811 12.62266747682182
GLOBALSTAR M076         
1 37190U 10054C   25207.73209163 -.00000085  00000+0  10568-3 0  9993
2 37190  52.0047  18.8964 0001102  81.9326 291.2892 12.62264074681775
GLOBALSTAR M077         
1 37191U 10054D   25208.07031494 -.00000092  00000+0  66429-4 0  9998
2 37191  52.0095 334.7355 0000782 104.8058  66.7709 12.62268932682920
GLOBALSTAR M075         
1 37192U 10054E   25208.09725708 -.00000085  00000+0  10755-3 0  9991
2 37192  51.9957  60.0199 0000793  72.2928 101.3458 12.62266376681417
GLOBALSTAR M073         
1 37193U 10054F   25207.93564272 -.00000092  00000+0  66618-4 0  9999
2 37193  52.0082 334.3608 0000860  98.1438  61.3265 12.62272649682859
GLOBALSTAR M083         
1 37739U 11033A   25208.23862619 -.00000073  00000+0  16942-3 0  9996
2 37739  51.9858 282.1198 0000335 119.6356 275.1382 12.62260444652271
GLOBALSTAR M088         
1 37740U 11033B   25208.20716757 -.00000124  00000+0 -11139-3 0  9997
2 37740  52.0192 187.8502 0000074   3.4066   9.5506 12.62266947647741
GLOBALSTAR M091         
1 37741U 11033C   25207.90965604 -.00000107  00000+0 -20625-4 0  9993
2 37741  51.9986 152.1999 0000454   2.6513  38.5030 12.62269436648208
GLOBALSTAR M085         
1 37742U 11033D   25207.90492644 -.00000085  00000+0  10400-3 0  9996
2 37742  52.0124 103.2225 0000659  32.4517  47.7730 12.62263782648719
GLOBALSTAR M081         
1 37743U 11033E   25208.18708042 -.00000077  00000+0  14823-3 0  9994
2 37743  51.9958 105.1722 0000810  44.9637 116.3686 12.62267160649275
GLOBALSTAR M089         
1 37744U 11033F   25208.14533763 -.00000091  00000+0  70504-4 0  9992
2 37744  51.9939  59.5181 0000994  85.4680  67.2131 12.62265485649982
GLOBALSTAR M084         
1 38040U 11080A   25207.68637580 -.00000074  00000+0  16630-3 0  9994
2 38040  52.0014 288.2272 0000867 121.6469  43.6769 12.62267459627655
GLOBALSTAR M080         
1 38041U 11080B   25207.97582627 -.00000080  00000+0  13008-3 0  9991
2 38041  52.0064 288.9524 0000407 177.5098 353.0246 12.62267708627819
GLOBALSTAR M082         
1 38042U 11080C   25207.83271229 -.00000088  00000+0  85335-4 0  9991
2 38042  52.0056 244.8518 0000263 233.7891 297.0507 12.62267612628509
GLOBALSTAR M092         
1 38043U 11080D   25207.80292037 -.00000088  00000+0  87393-4 0  9995
2 38043  52.0106 335.3206 0000754 108.2839  46.7351 12.62265179626958
GLOBALSTAR M090         
1 38044U 11080E   25207.53878155 -.00000086  00000+0  98291-4 0  9994
2 38044  52.0101 239.5949 0000103  94.4180  61.0166 12.62261331628587
GLOBALSTAR M086         
1 38045U 11080F   25207.80606804 -.00000044  00000+0  33103-3 0  9999
2 38045  51.9877 239.2401 0001211  63.1957 108.8955 12.62275441628563
GLOBALSTAR M097         
1 39072U 13005A   25207.87415272 -.00000121  00000+0 -93979-4 0  9998
2 39072  52.0032 153.6186 0000507  30.8403 329.2494 12.62265590575823
GLOBALSTAR M093         
1 39073U 13005B   25207.76860141 -.00000105  00000+0 -88186-5 0  9993
2 39073  51.9800 147.1798 0000559  23.6030 336.4862 12.62266228575766
GLOBALSTAR M094         
1 39074U 13005C   25207.84797132 -.00000083  00000+0  11811-3 0  9995
2 39074  51.9966  61.3615 0000923  54.2861 305.8091 12.62263021577384
GLOBALSTAR M096         
1 39075U 13005D   25207.94025813 -.00000081  00000+0  12718-3 0  9992
2 39075  52.0071 109.6257 0000734  30.9307 329.1603 12.62265818576314
GLOBALSTAR M078         
1 39076U 13005E   25208.23070580 -.00000127  00000+0 -12874-3 0  9992
2 39076  51.9848 193.1977 0000690 273.2290  86.8498 12.62259709575181
GLOBALSTAR M095         
1 39077U 13005F   25208.17757663 -.00000122  00000+0 -98967-4 0  9993
2 39077  51.9773 190.5337 0000485 320.9234  39.1598 12.62268441575185
GLOBALSTAR M087         
1 52888U 22064A   25207.55941161 -.00000087  00000+0  93708-4 0  9999
2 52888  52.0017 333.8240 0000540  97.5774 262.5154 12.62259228150010
